{
  "type": "FeatureCollection",
  "features": [
    {
      "type": "Feature",
      "properties": {
        "norad_id": 37069,
        "name": "FENGYUN 1C DEB",
        "group": "fengyun-1c-debris",
        "lat": -4.256944645392506,
        "lon": 131.611050792681,
        "alt_km": 1140.9563570783448,
        "timestamp": "2025-12-03T22:42:32.922765+00:00",
        "meta_object_name": "FENGYUN 1C DEB",
        "meta_object_id": "1999-025EFD",
        "meta_epoch": "2025-11-28T16:06:15.972480",
        "meta_mean_motion": 13.37875406,
        "meta_eccentricity": 0.0426586,
        "meta_inclination": 95.8475,
        "meta_ra_of_asc_node": 308.9975,
        "meta_arg_of_pericenter": 294.4722,
        "meta_mean_anomaly": 61.249,
        "meta_ephemeris_type": 0,
        "meta_classification_type": "U",
        "meta_norad_cat_id": 37069,
        "meta_element_set_no": 999,
        "meta_rev_at_epoch": 87520,
        "meta_bstar": 0.0036837011,
        "meta_mean_motion_dot": 3.263e-05,
        "meta_mean_motion_ddot": 0,
        "tle_line1": "1 37069U 99025EFD 25332.67101820  .00003263  00000+0  36837-2 0  9992",
        "tle_line2": "2 37069  95.8475 308.9975 0426586 294.4722  61.2490 13.37875406875205"
      },
      "geometry": {
        "type": "Point",
        "coordinates": [
          131.611050792681,
          -4.256944645392506
        ]
      }
    },
    {
      "type": "Feature",
      "properties": {
        "norad_id": 37077,
        "name": "FENGYUN 1C DEB",
        "group": "fengyun-1c-debris",
        "lat": 80.94887607251442,
        "lon": -40.11320701261627,
        "alt_km": 753.2605137736855,
        "timestamp": "2025-12-03T22:42:32.922774+00:00",
        "meta_object_name": "FENGYUN 1C DEB",
        "meta_object_id": "1999-025EFM",
        "meta_epoch": "2025-12-03T03:58:01.005024",
        "meta_mean_motion": 14.41158093,
        "meta_eccentricity": 0.00958026,
        "meta_inclination": 99.0355,
        "meta_ra_of_asc_node": 51.7572,
        "meta_arg_of_pericenter": 357.0987,
        "meta_mean_anomaly": 2.9633,
        "meta_ephemeris_type": 0,
        "meta_classification_type": "U",
        "meta_norad_cat_id": 37077,
        "meta_element_set_no": 999,
        "meta_rev_at_epoch": 84817,
        "meta_bstar": 0.00042904421,
        "meta_mean_motion_dot": 1.409e-05,
        "meta_mean_motion_ddot": 0,
        "tle_line1": "1 37077U 99025EFM 25337.16528941  .00001409  00000+0  42904-3 0  9990",
        "tle_line2": "2 37077  99.0355  51.7572 0095802 357.0987   2.9633 14.41158093848174"
      },
      "geometry": {
        "type": "Point",
        "coordinates": [
          -40.11320701261627,
          80.94887607251442
        ]
      }
    },
    {
      "type": "Feature",
      "properties": {
        "norad_id": 37079,
        "name": "FENGYUN 1C DEB",
        "group": "fengyun-1c-debris",
        "lat": 72.57248226575334,
        "lon": 82.52669201809833,
        "alt_km": 689.1788534786001,
        "timestamp": "2025-12-03T22:42:32.922783+00:00",
        "meta_object_name": "FENGYUN 1C DEB",
        "meta_object_id": "1999-025EFP",
        "meta_epoch": "2025-12-02T15:06:01.221984",
        "meta_mean_motion": 14.59266207,
        "meta_eccentricity": 0.00129922,
        "meta_inclination": 98.8575,
        "meta_ra_of_asc_node": 110.9085,
        "meta_arg_of_pericenter": 174.2957,
        "meta_mean_anomaly": 185.8391,
        "meta_ephemeris_type": 0,
        "meta_classification_type": "U",
        "meta_norad_cat_id": 37079,
        "meta_element_set_no": 999,
        "meta_rev_at_epoch": 64468,
        "meta_bstar": 0.0051292325,
        "meta_mean_motion_dot": 0.00024282,
        "meta_mean_motion_ddot": 0,
        "tle_line1": "1 37079U 99025EFP 25336.62918081  .00024282  00000+0  51292-2 0  9993",
        "tle_line2": "2 37079  98.8575 110.9085 0012992 174.2957 185.8391 14.59266207644687"
      },
      "geometry": {
        "type": "Point",
        "coordinates": [
          82.52669201809833,
          72.57248226575334
        ]
      }
    },
    {
      "type": "Feature",
      "properties": {
        "norad_id": 37081,
        "name": "FENGYUN 1C DEB",
        "group": "fengyun-1c-debris",
        "lat": -80.08249485325574,
        "lon": -168.32137945026037,
        "alt_km": 879.0086854392539,
        "timestamp": "2025-12-03T22:42:32.922792+00:00",
        "meta_object_name": "FENGYUN 1C DEB",
        "meta_object_id": "1999-025EFR",
        "meta_epoch": "2025-12-02T16:31:34.914720",
        "meta_mean_motion": 14.13671835,
        "meta_eccentricity": 0.02634139,
        "meta_inclination": 98.7085,
        "meta_ra_of_asc_node": 129.2152,
        "meta_arg_of_pericenter": 17.3784,
        "meta_mean_anomaly": 343.6196,
        "meta_ephemeris_type": 0,
        "meta_classification_type": "U",
        "meta_norad_cat_id": 37081,
        "meta_element_set_no": 999,
        "meta_rev_at_epoch": 58432,
        "meta_bstar": 0.00429187,
        "meta_mean_motion_dot": 0.00011266,
        "meta_mean_motion_ddot": 0,
        "tle_line1": "1 37081U 99025EFR 25336.68859855  .00011266  00000+0  42919-2 0  9999",
        "tle_line2": "2 37081  98.7085 129.2152 0263413  17.3784 343.6196 14.13671835584322"
      },
      "geometry": {
        "type": "Point",
        "coordinates": [
          -168.32137945026037,
          -80.08249485325574
        ]
      }
    },
    {
      "type": "Feature",
      "properties": {
        "norad_id": 37400,
        "name": "FENGYUN 1C DEB",
        "group": "fengyun-1c-debris",
        "lat": -27.836375943079002,
        "lon": -8.614580105297593,
        "alt_km": 824.6433345717742,
        "timestamp": "2025-12-03T22:42:32.922801+00:00",
        "meta_object_name": "FENGYUN 1C DEB",
        "meta_object_id": "1999-025EFS",
        "meta_epoch": "2025-11-30T00:22:53.964768",
        "meta_mean_motion": 13.63619747,
        "meta_eccentricity": 0.0401354,
        "meta_inclination": 98.8385,
        "meta_ra_of_asc_node": 172.516,
        "meta_arg_of_pericenter": 169.9422,
        "meta_mean_anomaly": 191.0066,
        "meta_ephemeris_type": 0,
        "meta_classification_type": "U",
        "meta_norad_cat_id": 37400,
        "meta_element_set_no": 999,
        "meta_rev_at_epoch": 80020,
        "meta_bstar": 0.00054446719,
        "meta_mean_motion_dot": 7.06e-06,
        "meta_mean_motion_ddot": 0,
        "tle_line1": "1 37400U 99025EFS 25334.01590237  .00000706  00000+0  54447-3 0  9992",
        "tle_line2": "2 37400  98.8385 172.5160 0401354 169.9422 191.0066 13.63619747800209"
      },
      "geometry": {
        "type": "Point",
        "coordinates": [
          -8.614580105297593,
          -27.836375943079002
        ]
      }
    },
    {
      "type": "Feature",
      "properties": {
        "norad_id": 37404,
        "name": "FENGYUN 1C DEB",
        "group": "fengyun-1c-debris",
        "lat": -17.171239942696456,
        "lon": -16.343195213437617,
        "alt_km": 819.7599009164751,
        "timestamp": "2025-12-03T22:42:32.922810+00:00",
        "meta_object_name": "FENGYUN 1C DEB",
        "meta_object_id": "1999-025EFW",
        "meta_epoch": "2025-12-03T11:46:07.339008",
        "meta_mean_motion": 14.31589733,
        "meta_eccentricity": 0.0044061,
        "meta_inclination": 98.4524,
        "meta_ra_of_asc_node": 340.5795,
        "meta_arg_of_pericenter": 189.6229,
        "meta_mean_anomaly": 324.9221,
        "meta_ephemeris_type": 0,
        "meta_classification_type": "U",
        "meta_norad_cat_id": 37404,
        "meta_element_set_no": 999,
        "meta_rev_at_epoch": 82608,
        "meta_bstar": 0.00096855,
        "meta_mean_motion_dot": 2.564e-05,
        "meta_mean_motion_ddot": 0,
        "tle_line1": "1 37404U 99025EFW 25337.49036272  .00002564  00000+0  96855-3 0  9998",
        "tle_line2": "2 37404  98.4524 340.5795 0044061 189.6229 324.9221 14.31589733826088"
      },
      "geometry": {
        "type": "Point",
        "coordinates": [
          -16.343195213437617,
          -17.171239942696456
        ]
      }
    },
    {
      "type": "Feature",
      "properties": {
        "norad_id": 37406,
        "name": "FENGYUN 1C DEB",
        "group": "fengyun-1c-debris",
        "lat": 48.25405295682784,
        "lon": -158.88684825901902,
        "alt_km": 924.0913781356894,
        "timestamp": "2025-12-03T22:42:32.922819+00:00",
        "meta_object_name": "FENGYUN 1C DEB",
        "meta_object_id": "1999-025EFY",
        "meta_epoch": "2025-11-30T09:51:26.349696",
        "meta_mean_motion": 14.04210326,
        "meta_eccentricity": 0.01505151,
        "meta_inclination": 98.4431,
        "meta_ra_of_asc_node": 207.4058,
        "meta_arg_of_pericenter": 301.4586,
        "meta_mean_anomaly": 243.4646,
        "meta_ephemeris_type": 0,
        "meta_classification_type": "U",
        "meta_norad_cat_id": 37406,
        "meta_element_set_no": 999,
        "meta_rev_at_epoch": 63059,
        "meta_bstar": 0.0013349952,
        "meta_mean_motion_dot": 2.303e-05,
        "meta_mean_motion_ddot": 0,
        "tle_line1": "1 37406U 99025EFY 25334.41072164  .00002303  00000+0  13350-2 0  9998",
        "tle_line2": "2 37406  98.4431 207.4058 0150515 301.4586 243.4646 14.04210326630596"
      },
      "geometry": {
        "type": "Point",
        "coordinates": [
          -158.88684825901902,
          48.25405295682784
        ]
      }
    }
  ]
}